NORAD_CAT_ID,OBJECT_NAME,OBJECT_TYPE,EPOCH,MEAN_MOTION,ECCENTRICITY,INCLINATION,RA_OF_ASC_NODE,ARG_OF_PERICENTER,MEAN_ANOMALY,BSTAR,MEAN_MOTION_DOT,MEAN_MOTION_DDOT,TLE_LINE0,TLE_LINE1,TLE_LINE2,SEMIMAJOR_AXIS,PERIOD,APOGEE,PERIGEE,DECAYED
51132.0,STARLINK-3393,PAYLOAD,2023-10-12 04:57:32,15.08837886,0.0001695,53.2149,287.2763,91.8375,268.2811,0.00010458,1.377e-05,0.0,0 STARLINK-3393,1 51132U 22005AE  23285.20662083  .00001377  00000-0  10458-3 0  9997,2 51132  53.2149 287.2763 0001695  91.8375 268.2811 15.08837886 97072,6917.887,95.438,540.924,538.579,0.0
51132.0,STARLINK-3393,PAYLOAD,2023-10-12 06:32:55,15.08840017,0.0001614,53.2147,286.9781,93.645,266.4727,0.00011627,1.563e-05,0.0,0 STARLINK-3393,1 51132U 22005AE  23285.27285961  .00001563  00000-0  11627-3 0  9996,2 51132  53.2147 286.9781 0001614  93.6450 266.4727 15.08840017 95963,6917.88,95.438,540.862,538.629,0.0
51132.0,STARLINK-3393,PAYLOAD,2023-10-12 17:40:37,15.08838904,0.0001533,53.2148,284.8961,97.0042,263.1125,0.00014217,1.975e-05,0.0,0 STARLINK-3393,1 51132U 22005AE  23285.73654139  .00001975  00000-0  14217-3 0  9999,2 51132  53.2148 284.8961 0001533  97.0042 263.1125 15.08838904 96033,6917.884,95.438,540.809,538.688,0.0
51132.0,STARLINK-3393,PAYLOAD,2023-10-13 09:34:28,15.08846258,0.0001748,53.2151,281.9216,96.2583,263.8609,0.00020217,2.931e-05,0.0,0 STARLINK-3393,1 51132U 22005AE  23286.39893902  .00002931  00000-0  20217-3 0  9995,2 51132  53.2151 281.9216 0001748  96.2583 263.8609 15.08846258 97257,6917.861,95.437,540.936,538.517,0.0
51132.0,STARLINK-3393,PAYLOAD,2023-10-14 06:14:28,15.08853375,0.0001866,53.2157,278.0525,109.9948,250.1245,0.00022115,3.235e-05,0.0,0 STARLINK-3393,1 51132U 22005AE  23287.26005341  .00003235  00000-0  22115-3 0  9991,2 51132  53.2157 278.0525 0001866 109.9948 250.1245 15.08853375 96264,6917.84,95.437,540.995,538.414,0.0
51132.0,STARLINK-3393,PAYLOAD,2023-10-15 04:29:53,15.08828412,0.0001753,53.2164,273.8901,112.371,247.7468,-0.00012506,-2.277e-05,0.0,0 STARLINK-3393,1 51132U 22005AE  23288.18742767 -.00002277  00000-0 -12506-3 0  9993,2 51132  53.2164 273.8901 0001753 112.3710 247.7468 15.08828412 97526,6917.916,95.438,540.994,538.568,0.0
51132.0,STARLINK-3393,PAYLOAD,2023-10-15 06:05:17,15.08827963,0.0001434,53.2158,273.5936,90.7985,269.3171,-0.00011193,-2.068e-05,0.0,0 STARLINK-3393,1 51132U 22005AE  23288.25366905 -.00002068  00000-0 -11193-3 0  9996,2 51132  53.2158 273.5936 0001434  90.7985 269.3171 15.08827963 96411,6917.917,95.438,540.774,538.79,0.0
51132.0,STARLINK-3393,PAYLOAD,2023-10-15 15:37:35,15.0883537,0.000143,53.2163,271.8096,90.9635,269.1521,-6.6285e-06,-3.93e-06,0.0,0 STARLINK-3393,1 51132U 22005AE  23288.65110708 -.00000393  00000-0 -66285-5 0  9991,2 51132  53.2163 271.8096 0001430  90.9635 269.1521 15.08835370 97593,6917.895,95.438,540.749,538.77,0.0
51132.0,STARLINK-3393,PAYLOAD,2023-10-16 04:20:40,15.08850657,0.0001355,53.2159,269.4329,96.0146,264.1,0.00016004,2.261e-05,0.0,0 STARLINK-3393,1 51132U 22005AE  23289.18102093  .00002261  00000-0  16004-3 0  9994,2 51132  53.2159 269.4329 0001355  96.0146 264.1000 15.08850657 97671,6917.848,95.437,540.65,538.775,0.0
51132.0,STARLINK-3393,PAYLOAD,2023-10-16 05:56:03,15.08854654,0.0001339,53.216,269.1369,99.4752,260.6392,0.0002501,3.696e-05,0.0,0 STARLINK-3393,1 51132U 22005AE  23289.24725911  .00003696  00000-0  25010-3 0  9991,2 51132  53.2160 269.1369 0001339  99.4752 260.6392 15.08854654 96569,6917.836,95.437,540.627,538.774,0.0
51132.0,STARLINK-3393,PAYLOAD,2023-10-17 15:19:09,15.08842824,0.0001327,53.2166,262.8923,97.3704,262.7438,8.209e-05,1.019e-05,0.0,0 STARLINK-3393,1 51132U 22005AE  23290.63830492  .00001019  00000-0  82090-4 0  9996,2 51132  53.2166 262.8923 0001327  97.3704 262.7438 15.08842824 97899,6917.872,95.437,540.655,538.819,0.0
51132.0,STARLINK-3393,PAYLOAD,2023-10-18 02:26:51,15.08844552,0.0001484,53.2169,260.8102,94.2003,265.9159,7.5631e-05,9.16e-06,0.0,0 STARLINK-3393,1 51132U 22005AE  23291.10198536  .00000916  00000-0  75631-4 0  9993,2 51132  53.2169 260.8102 0001484  94.2003 265.9159 15.08844552 96840,6917.866,95.437,540.758,538.705,0.0
51132.0,STARLINK-3393,PAYLOAD,2023-10-18 15:09:56,15.08842873,0.0001549,53.2161,258.4333,87.4766,272.6403,8.9117e-05,1.131e-05,0.0,0 STARLINK-3393,1 51132U 22005AE  23291.63190661  .00001131  00000-0  89117-4 0  9996,2 51132  53.2161 258.4333 0001549  87.4766 272.6403 15.08842873 96923,6917.872,95.437,540.808,538.665,0.0
51132.0,STARLINK-3393,PAYLOAD,2023-10-19 03:53:01,15.08841879,0.000124,53.2159,256.0528,88.5378,271.5756,8.6346e-05,1.087e-05,0.0,0 STARLINK-3393,1 51132U 22005AE  23292.16182672  .00001087  00000-0  86346-4 0  9999,2 51132  53.2159 256.0528 0001240  88.5378 271.5756 15.08841879 98127,6917.875,95.437,540.597,538.882,0.0
51132.0,STARLINK-3393,PAYLOAD,2023-10-19 07:03:47,15.08854566,0.0001562,53.2165,255.4555,92.6592,267.4579,0.0002727,4.056e-05,0.0,0 STARLINK-3393,1 51132U 22005AE  23292.29429989  .00004056  00000-0  27270-3 0  9997,2 51132  53.2165 255.4555 0001562  92.6592 267.4579 15.08854566 98144,6917.836,95.437,540.781,538.62,0.0
51132.0,STARLINK-3393,PAYLOAD,2023-10-19 21:22:16,15.08840106,0.0001278,53.2169,252.7799,96.3445,263.7693,9.11e-05,1.162e-05,0.0,0 STARLINK-3393,1 51132U 22005AE  23292.89046718  .00001162  00000-0  91100-4 0  9997,2 51132  53.2169 252.7799 0001278  96.3445 263.7693 15.08840106 98231,6917.88,95.438,540.629,538.861,0.0
51132.0,STARLINK-3393,PAYLOAD,2023-10-20 03:43:48,15.08850541,0.0001683,53.2162,251.591,105.357,254.7608,0.00014593,2.036e-05,0.0,0 STARLINK-3393,1 51132U 22005AE  23293.15542116  .00002036  00000-0  14593-3 0  9991,2 51132  53.2162 251.5910 0001683 105.3570 254.7608 15.08850541 98270,6917.848,95.437,540.877,538.549,0.0
51132.0,STARLINK-3393,PAYLOAD,2023-10-20 06:54:34,15.08854154,0.0001829,53.2168,250.9953,104.1044,256.0151,0.00024979,3.691e-05,0.0,0 STARLINK-3393,1 51132U 22005AE  23293.28789912  .00003691  00000-0  24979-3 0  9999,2 51132  53.2168 250.9953 0001829 104.1044 256.0151 15.08854154 97171,6917.837,95.437,540.967,538.437,0.0
51132.0,STARLINK-3393,PAYLOAD,2023-10-21 01:59:13,15.08834172,0.0001581,53.2176,247.428,103.4142,256.7027,1.9626e-05,2.4e-07,0.0,0 STARLINK-3393,1 51132U 22005AE  23294.08279177  .00000024  00000-0  19626-4 0  9996,2 51132  53.2176 247.4280 0001581 103.4142 256.7027 15.08834172 98415,6917.898,95.438,540.857,538.669,0.0
51132.0,STARLINK-3393,PAYLOAD,2023-10-21 03:34:36,15.08839017,0.0001685,53.2169,247.1304,105.4022,254.7156,-4.6308e-05,-1.025e-05,0.0,0 STARLINK-3393,1 51132U 22005AE  23294.14902885 -.00001025  00000-0 -46308-4 0  9993,2 51132  53.2169 247.1304 0001685 105.4022 254.7156 15.08839017 97306,6917.883,95.438,540.914,538.583,0.0
51132.0,STARLINK-3393,PAYLOAD,2023-10-21 21:03:50,15.08850541,0.000156,53.2169,243.8567,111.3711,248.7448,0.00024507,3.616e-05,0.0,0 STARLINK-3393,1 51132U 22005AE  23294.87766366  .00003616  00000-0  24507-3 0  9997,2 51132  53.2169 243.8567 0001560 111.3711 248.7448 15.08850541 97417,6917.848,95.437,540.792,538.634,0.0
51132.0,STARLINK-3393,PAYLOAD,2023-10-22 03:25:22,15.0886663,0.0001469,53.2159,242.6709,91.3039,268.8122,0.00093969,0.0001471,0.0,0 STARLINK-3393,1 51132U 22005AE  23295.14262183  .00014710  00000-0  93969-3 0  9991,2 51132  53.2159 242.6709 0001469  91.3039 268.8122 15.08866630 98575,6917.799,95.436,540.68,538.648,0.0
51132.0,STARLINK-3393,PAYLOAD,2023-10-23 03:16:10,15.08836374,0.0001451,53.216,238.2103,107.9885,252.1266,0.00021988,3.213e-05,0.0,0 STARLINK-3393,1 51132U 22005AE  23296.13622791  .00003213  00000-0  21988-3 0  9994,2 51132  53.2160 238.2103 0001451 107.9885 252.1266 15.08836374 98724,6917.891,95.438,540.76,538.753,0.0
51132.0,STARLINK-3393,PAYLOAD,2023-10-23 12:48:29,15.08831893,0.0001522,53.2162,236.4267,112.4216,247.6938,0.00062975,9.746e-05,0.0,0 STARLINK-3393,1 51132U 22005AE  23296.53367314  .00009746  00000-0  62975-3 0  9993,2 51132  53.2162 236.4267 0001522 112.4216 247.6938 15.08831893 97663,6917.905,95.438,540.823,538.717,0.0
51132.0,STARLINK-3393,PAYLOAD,2023-10-24 04:42:20,15.08842091,0.0001642,53.2166,233.4541,115.7997,244.3164,0.00061433,9.503e-05,0.0,0 STARLINK-3393,1 51132U 22005AE  23297.19607517  .00009503  00000-0  61433-3 0  9997,2 51132  53.2166 233.4541 0001642 115.7997 244.3164 15.08842091 98886,6917.874,95.437,540.875,538.603,0.0
51132.0,STARLINK-3393,PAYLOAD,2023-10-24 12:39:16,15.08841198,0.0001419,53.2159,231.9658,107.0681,253.0467,0.00038208,5.798e-05,0.0,0 STARLINK-3393,1 51132U 22005AE  23297.52727563  .00005798  00000-0  38208-3 0  9994,2 51132  53.2159 231.9658 0001419 107.0681 253.0467 15.08841198 97818,6917.877,95.437,540.723,538.76,0.0
51132.0,STARLINK-3393,PAYLOAD,2023-10-25 04:33:07,15.08843543,0.0001506,53.2164,228.9927,106.1076,254.0082,0.0002752,4.095e-05,0.0,0 STARLINK-3393,1 51132U 22005AE  23298.18967530  .00004095  00000-0  27520-3 0  9991,2 51132  53.2164 228.9927 0001506 106.1076 254.0082 15.08843543 99030,6917.87,95.437,540.776,538.693,0.0
51132.0,STARLINK-3393,PAYLOAD,2023-10-26 04:23:55,15.0884065,0.0001612,53.2165,224.5314,100.9951,259.1223,0.00036305,5.495e-05,0.0,0 STARLINK-3393,1 51132U 22005AE  23299.18327794  .00005495  00000-0  36305-3 0  9990,2 51132  53.2165 224.5314 0001612 100.9951 259.1223 15.08840650 99180,6917.878,95.438,540.859,538.628,0.0
51132.0,STARLINK-3393,PAYLOAD,2023-10-26 05:59:17,15.08849837,0.0001453,53.2161,224.2335,97.8561,262.2596,0.00015644,2.203e-05,0.0,0 STARLINK-3393,1 51132U 22005AE  23299.24951215  .00002203  00000-0  15644-3 0  9995,2 51132  53.2161 224.2335 0001453  97.8561 262.2596 15.08849837 99195,6917.85,95.437,540.72,538.71,0.0
51132.0,STARLINK-3393,PAYLOAD,2023-10-27 12:11:37,15.08844828,0.00016,53.2168,218.5832,84.8498,275.2677,0.00010767,1.426e-05,0.0,0 STARLINK-3393,1 51132U 22005AE  23300.50807205  .00001426  00000-0  10767-3 0  9993,2 51132  53.2168 218.5832 0001600  84.8498 275.2677 15.08844828 99389,6917.866,95.437,540.837,538.624,0.0
